STARLINK-3751           
1 52289U 22041AE  26068.31540967  .00000444  00000+0  46010-4 0  9998
2 52289  53.2163 100.8007 0001157  87.7054 272.4071 15.08830974214442
DISKSAT C               
1 67219U 25305A   26068.80315184  .00011541  00000+0  75564-3 0  9993
2 67219  45.0017 250.1278 0004534 310.7706  49.2776 15.07852977 12312
